[{"OBJECT_NAME":"STARLINK-5298","OBJECT_ID":"2023-010N","EPOCH":"2026-03-09T22:31:23.386368","MEAN_MOTION":14.98329657,"ECCENTRICITY":0.00029178,"INCLINATION":70.0007,"RA_OF_ASC_NODE":43.8115,"ARG_OF_PERICENTER":267.8478,"MEAN_ANOMALY":92.2347,"EPHEMERIS_TYPE":0,"CLASSIFICATION_TYPE":"U","NORAD_CAT_ID":55281,"ELEMENT_SET_NO":999,"REV_AT_EPOCH":17281,"BSTAR":1.947604e-6,"MEAN_MOTION_DOT":-7.0e-7,"MEAN_MOTION_DDOT":0},{"OBJECT_NAME":"CZ-6A DEB","OBJECT_ID":"2022-151UT","EPOCH":"2026-03-09T17:50:02.810976","MEAN_MOTION":14.9898329,"ECCENTRICITY":0.00453187,"INCLINATION":98.6222,"RA_OF_ASC_NODE":145.5138,"ARG_OF_PERICENTER":180.208,"MEAN_ANOMALY":179.9129,"EPHEMERIS_TYPE":0,"CLASSIFICATION_TYPE":"U","NORAD_CAT_ID":55003,"ELEMENT_SET_NO":999,"REV_AT_EPOCH":17561,"BSTAR":0.0047870048,"MEAN_MOTION_DOT":0.00059614,"MEAN_MOTION_DDOT":0}]
